IDEFIX & ARIANE 42P R/B 
1 27422U 02021B   25363.29490008  .00000499  00000+0  20621-3 0  9998
2 27422  98.5805 297.7725 0012619  38.8422 321.3666 14.30963648233952
AQUA                    
1 27424U 02022A   25362.84242936  .00001419  00000+0  29424-3 0  9999
2 27424  98.4059 323.9850 0001878  97.4017 318.4487 14.61770338258389
CZ-4B R/B               
1 27432U 02024C   25363.12538384  .00000094  00000+0  71407-4 0  9994
2 27432  98.8976  51.8381 0049526 222.5932 191.9907 14.14531499219261
MIDORI II (ADEOS-II)    
1 27597U 02056A   25362.81734100  .00000442  00000+0  19172-3 0  9997
2 27597  98.7658 315.8598 0001004 141.9789 218.1464 14.29217740200171
H-2A R/B                
1 27601U 02056E   25362.87066266  .00000552  00000+0  20824-3 0  9998
2 27601  98.3088 320.9871 0070677  13.6204  40.0516 14.33691358203966
CZ-4B R/B               
1 28059U 03049C   25362.96351392  .00000678  00000+0  16688-3 0  9998
2 28059  98.6800 350.1412 0049380  87.5761 273.1087 14.54926442176318
CZ-2C R/B               
1 28222U 04012C   25363.13707271  .00056403  00000+0  77950-3 0  9998
2 28222  97.7393  57.1257 0016672 207.0651 152.9736 15.56812121193273
SL-16 R/B               
1 28353U 04021B   25363.30990582  .00000344  00000+0  20388-3 0  9997
2 28353  71.0005  20.1910 0004379 171.8976 188.2218 14.14582374112880
CZ-4B R/B               
1 28415U 04035C   25363.06956281  .00011403  00000+0  41814-3 0  9997
2 28415  97.3600  33.1971 0032024 216.7956 143.1086 15.27652393169123
CZ-2C R/B               
1 28480U 04046B   25363.22660175  .00000449  00000+0  18211-3 0  9996
2 28480  98.1998 277.5807 0139644   3.7646 356.4552 14.26952079 98458
ARIANE 5 R/B            
1 28499U 04049H   25362.95844628  .00002020  00000+0  22933-3 0  9998
2 28499  98.2533 163.8226 0083670 219.7316 139.7751 14.85059110135292
CZ-2D R/B               
1 28738U 05024B   25362.75929077  .00040793  00000+0  62639-3 0  9994
2 28738  97.3634  10.6363 0003185 293.0521  67.0397 15.54167228128745
